IRIDIUM 112             
1 41925U 17003J   25178.43039553  .00000176  00000+0  55845-4 0  9991
2 41925  86.3966 236.4879 0002334  95.8737 264.2725 14.34218882442426
IRIDIUM 111             
1 41926U 17003K   25178.62701541  .00000192  00000+0  61549-4 0  9992
2 41926  86.3966 236.4682 0002344  89.5313 270.6152 14.34219202442433
IRIDIUM 113             
1 42803U 17039A   25178.81628740  .00000011  00000+0 -30059-5 0  9990
2 42803  86.3976 110.3181 0002348  87.2948 272.8516 14.34217661420392
IRIDIUM 123             
1 42804U 17039B   25178.92753473 -.00000005  00000+0 -87255-5 0  9999
2 42804  86.3992 141.7329 0002312  77.7432 282.4023 14.34217444419179
IRIDIUM 120             
1 42805U 17039C   25178.87971238  .00000052  00000+0  11346-4 0  9992
2 42805  86.3964 110.1202 0002043  76.8420 283.3003 14.34217922420392
IRIDIUM 115             
1 42806U 17039D   25178.83798216  .00000246  00000+0  67222-4 0  9991
2 42806  86.4502 110.2178 0002631  68.7200 291.4282 14.43282536423153
IRIDIUM 118             
1 42807U 17039E   25179.16853656  .00000143  00000+0  43811-4 0  9993
2 42807  86.3987 141.6317 0002350  85.7109 274.4356 14.34234073419216
IRIDIUM 117             
1 42808U 17039F   25178.90850737  .00000034  00000+0  52515-5 0  9993
2 42808  86.3987 141.7015 0002548  81.8499 278.2986 14.34217666419198
